0 UBAKUSAT
1 43466U 98067NP  19184.39654574  .00014134  00000-0  13754-3 0  9995
2 43466  51.6368 259.7689 0000063 330.7262  29.3731 15.66563475 65220
0 IRAZU
1 43468U 98067NR  19184.04025623  .00020159  00000-0  17185-3 0  9992
2 43468  51.6356 258.1129 0000626 325.9030  34.1927 15.69530307165206
0 BEIDOU IGSO-7
1 43539U 18057A   19183.13415826 -.00000055 +00000-0 +00000-0 0  9998
2 43539 055.0371 185.4762 0024056 202.1219 053.9757 01.00273514003668
0 CUBERRT
1 43546U 98067NU  19184.13666924  .00021966  00000-0  22201-3 0  9996
2 43546  51.6379 266.2830 0003904 188.7540 171.3388 15.65238995 55252
0 TEMPEST-D
1 43547U 98067NV  19183.83899659 +.00002656 +00000-0 +41303-4 0  9996
2 43547 051.6388 275.5453 0005598 173.0760 187.0310 15.58039363054785
0 RAINCUBE
1 43548U 98067NW  19184.44624276  .00009074  00000-0  10913-3 0  9999
2 43548  51.6368 268.3362 0004990 189.8126 170.2771 15.61663134 55384
0 HALOSAT
1 43549U 98067NX  19183.61867401  .00009281  00000-0  11173-3 0  9996
2 43549  51.6380 272.5709 0005038 188.4683 171.6226 15.61605147 54815
0 RADIX
1 43550U 98067NY  19183.61001083 +.00017574 +00000-0 +16997-3 0  9997
2 43550 051.6354 267.2141 0003396 216.8004 143.2760 15.66517635055343
0 EQUISAT
1 43552U 98067PA  19184.12945750  .00009257  00000-0  11019-3 0  9993
2 43552  51.6391 269.2568 0005553 199.2436 160.8349 15.61902937 55279
0 AEROCUBE 12A
1 43556U 18046C   19183.83760775  .00000185  00000-0  19196-4 0  9991
2 43556  51.6436 348.7972 0009031 118.8578 241.3309 15.28735815 53725
0 AEROCUBE 12B
1 43557U 18046D   19183.72155181 +.00000908 +00000-0 +44837-4 0  9992
2 43557 051.6439 349.5185 0009007 118.6972 241.4915 15.28608435053656
0 LEMUR 2 VU
1 43558U 18046E   19183.81766793  .00001002  00000-0  47125-4 0  9999
2 43558  51.6433 347.9420 0008536 121.2172 238.9645 15.29381339 53724
0 LEMUR 2 ALEXANDER
1 43559U 18046F   19183.80910840  .00001574  00000-0  66718-4 0  9996
2 43559  51.6432 347.8883 0008537 121.6439 238.5375 15.29475993 53509
0 LEMUR 2 YUASA
1 43560U 18046G   19183.82135384 +.00000872 +00000-0 +42655-4 0  9996
2 43560 051.6432 347.9598 0008854 133.5992 226.5724 15.29355515053729
0 GALILEO 26 (2C2)
1 43565U 18060B   19181.85499580 -.00000054  00000-0  00000+0 0  9995
2 43565  56.5731  50.7225 0002983 302.3825  57.6607  1.70475646  5857
0 GALILEO 23 (2C9)
1 43566U 18060C   19183.24814462 -.00000052 +00000-0 +00000-0 0  9990
2 43566 056.5746 050.6856 0002481 297.4714 062.5790 01.70475500005854
0 GALILEO 24 (2C0)
1 43567U 18060D   19184.05458195 -.00000052  00000-0  00000+0 0  9997
2 43567  56.5748  50.6644 0002614 299.1050  60.9451  1.70475365  5846
0 SIRIUSSAT-1
1 43595U 98067PG  19183.66223865  .00009542  00000-0  11614-3 0  9992
2 43595  51.6368 273.5864 0003166 159.5643 200.5478 15.61278002 50026
0 SIRIUSSAT-2
1 43596U 98067PH  19184.14213903  .00009479  00000-0  11606-3 0  9999
2 43596  51.6377 271.5769 0003642 162.3911 197.7210 15.61132415 50093
0 OBJECT PN
1 43638U 98067PN  19184.16550543  .00005078  00000-0  72821-4 0  9990
2 43638  51.6382 275.4767 0002775 144.4963 215.6214 15.58069832 41969
0 BEIDOU 3M18
1 43707U 18093B   19184.44928891  .00000019  00000-0  00000+0 0  9999
2 43707  54.8453 268.9652 0008396 269.9923 174.5188  1.86231880  4214
0 OBJECT D
1 43935U 19003D   19184.50218834  .00000393  00000-0  20065-4 0  9993
2 43935  97.2821 241.7188 0019497  30.5164  75.9700 15.22064657 25312
0 DELPHINI
1 44030U 98067PW  19184.49968899  .00007142  00000-0  10465-3 0  9999
2 44030  51.6388 276.9583 0004347 200.1640 159.9180 15.56747699 23855
0 UNITE
1 44031U 98067PX  19184.09485871  .00004883  00000-0  76298-4 0  9996
2 44031  51.6396 279.5069 0003125 191.4004 168.6917 15.55792530 23782
0 TECHEDSAT 8
1 44032U 98067PY  19183.82513507 +.00017627 +00000-0 +21909-3 0  9993
2 44032 051.6386 278.4551 0002995 204.6991 155.3860 15.60064063023758
0 CATSAT-1
1 44033U 98067PZ  19183.67171463  .00007504  00000-0  11017-3 0  9990
2 44033  51.6398 281.1896 0004562 196.6415 163.4428 15.56605721 23665
0 OBJECT F
1 44045U 18092F   19184.17401958  .00002028  00000-0  69944-4 0  9993
2 44045  51.6431 300.7646 0012853 137.4415 222.7582 15.34975724 21467
0 ONEWEB-0012
1 44057U 19010A   19184.13961228  .00000205  00000-0  51111-3 0  9995
2 44057  87.8976  44.2295 0001895  72.8088 287.3249 13.15298985 16721
0 ONEWEB-0011
1 44062U 19010F   19184.37594333  .00000174  00000-0  42869-3 0  9991
2 44062  87.8872  44.2168 0000935 205.7698 154.3386 13.15322924 16961
0 M6P
1 44109U 19018AF  19184.51358962  .00001273  00000-0  44594-4 0  9992
2 44109  97.5097 246.0007 0061032  13.2301  92.9355 15.29736427 14068
0 HARBINGER
1 44229U 19026E   19184.25235306  .00000384  00000-0  25330-4 0  9990
2 44229  40.0210 250.1948 0009193 336.8187  23.2198 15.20497843  8979
0 BEIDOU 2 G8
1 44231U 19027A   19184.11604999 -.00000133  00000-0  00000+0 0  9992
2 44231   1.7715 293.9451 0003187 147.6905 321.0189  1.00270664   618
0 OBJECT A
1 44235U 19029A   19184.47049901 -.00000165  00000-0  79086-5 0  9994
2 44235  53.0065 351.0600 0003071 149.6458 210.4708 15.05539292  7361
0 OBJECT AA
1 44259U 19029AA  19184.00049280  .00004295  00000-0  19722-3 0  9995
2 44259  53.0189 350.5809 0002498  98.7520 261.3758 15.22465204  6184
0 SPOOQY1
1 44332U 98067QH  19183.68627154  .00005208  00000-0  91952-4 0  9992
2 44332  51.6414 284.2790 0006335 136.6611 223.4878 15.52178699  2382
